{"type": "FeatureCollection", "features": [ {"type": "Feature", "properties": {"norad_id": 66440, "name": "STARLINK-35405", "group": "last-30-days", "lat": 17.01075822095363, "lon": -131.40274815721747, "alt_km": 427.254304659984, "timestamp": "2025-12-09T05:43:19.508376+00:00", "meta": {"OBJECT_NAME": "STARLINK-35405", "OBJECT_ID": "2025-259U", "EPOCH": "2025-12-08T20:00:01.999008", "MEAN_MOTION": 15.4754266, "ECCENTRICITY": 0.0001272, "INCLINATION": 43.0005, "RA_OF_ASC_NODE": 70.1188, "ARG_OF_PERICENTER": 284.4666, "MEAN_ANOMALY": 132.0443, "EPHEMERIS_TYPE": 0, "CLASSIFICATION_TYPE": "U", "NORAD_CAT_ID": 66440, "ELEMENT_SET_NO": 999, "REV_AT_EPOCH": 565, "BSTAR": -0.044429, "MEAN_MOTION_DOT": -0.02080072, "MEAN_MOTION_DDOT": 0}, "tle": {"line1": "1 66440U 25259U   25342.83335647 -.02080072  00000+0 -44429-1 0  9992", "line2": "2 66440  43.0005  70.1188 0001272 284.4666 132.0443 15.47542660  5650"}}, "geometry": {"type": "Point", "coordinates": [-131.40274815721747, 17.01075822095363]}}, {"type": "Feature", "properties": {"norad_id": 66441, "name": "STARLINK-35426", "group": "last-30-days", "lat": 9.487177282871372, "lon": -122.59659412876039, "alt_km": 415.3770472910601, "timestamp": "2025-12-09T05:43:19.508387+00:00", "meta": {"OBJECT_NAME": "STARLINK-35426", "OBJECT_ID": "2025-259V", "EPOCH": "2025-12-08T13:33:01.912608", "MEAN_MOTION": 15.50516656, "ECCENTRICITY": 0.0004241, "INCLINATION": 43.0012, "RA_OF_ASC_NODE": 71.6764, "ARG_OF_PERICENTER": 306.6467, "MEAN_ANOMALY": 53.4003, "EPHEMERIS_TYPE": 0, "CLASSIFICATION_TYPE": "U", "NORAD_CAT_ID": 66441, "ELEMENT_SET_NO": 999, "REV_AT_EPOCH": 552, "BSTAR": 0.0027132, "MEAN_MOTION_DOT": 0.00161833, "MEAN_MOTION_DDOT": 0}, "tle": {"line1": "1 66441U 25259V   25342.56460547  .00161833  00000+0  27132-2 0  9995", "line2": "2 66441  43.0012  71.6764 0004241 306.6467  53.4003 15.50516656  5524"}}, "geometry": {"type": "Point", "coordinates": [-122.59659412876039, 9.487177282871372]}}, {"type": "Feature", "properties": {"norad_id": 66442, "name": "STARLINK-34724", "group": "last-30-days", "lat": 9.498934269281849, "lon": -122.60814208147984, "alt_km": 420.5147617545881, "timestamp": "2025-12-09T05:43:19.508397+00:00", "meta": {"OBJECT_NAME": "STARLINK-34724", "OBJECT_ID": "2025-259W", "EPOCH": "2025-12-08T20:00:01.999008", "MEAN_MOTION": 15.50215235, "ECCENTRICITY": 0.0001355, "INCLINATION": 43.0005, "RA_OF_ASC_NODE": 70.101, "ARG_OF_PERICENTER": 287.3859, "MEAN_ANOMALY": 136.624, "EPHEMERIS_TYPE": 0, "CLASSIFICATION_TYPE": "U", "NORAD_CAT_ID": 66442, "ELEMENT_SET_NO": 999, "REV_AT_EPOCH": 565, "BSTAR": -0.040717, "MEAN_MOTION_DOT": -0.02094307, "MEAN_MOTION_DDOT": 0}, "tle": {"line1": "1 66442U 25259W   25342.83335647 -.02094307  00000+0 -40717-1 0  9996", "line2": "2 66442  43.0005  70.1010 0001355 287.3859 136.6240 15.50215235  5658"}}, "geometry": {"type": "Point", "coordinates": [-122.60814208147984, 9.498934269281849]}}, {"type": "Feature", "properties": {"norad_id": 66443, "name": "STARLINK-35219", "group": "last-30-days", "lat": 6.85058671603856, "lon": -119.6847313706967, "alt_km": 413.7622538232263, "timestamp": "2025-12-09T05:43:19.508409+00:00", "meta": {"OBJECT_NAME": "STARLINK-35219", "OBJECT_ID": "2025-259X", "EPOCH": "2025-12-08T15:04:46.968960", "MEAN_MOTION": 15.5058509, "ECCENTRICITY": 3.72e-05, "INCLINATION": 43.0003, "RA_OF_ASC_NODE": 71.2922, "ARG_OF_PERICENTER": 79.7553, "MEAN_ANOMALY": 280.3349, "EPHEMERIS_TYPE": 0, "CLASSIFICATION_TYPE": "U", "NORAD_CAT_ID": 66443, "ELEMENT_SET_NO": 999, "REV_AT_EPOCH": 542, "BSTAR": 0.0003448, "MEAN_MOTION_DOT": 0.00019942, "MEAN_MOTION_DDOT": 0}, "tle": {"line1": "1 66443U 25259X   25342.62832140  .00019942  00000+0  34480-3 0  9994", "line2": "2 66443  43.0003  71.2922 0000372  79.7553 280.3349 15.50585090  5424"}}, "geometry": {"type": "Point", "coordinates": [-119.6847313706967, 6.85058671603856]}}, {"type": "Feature", "properties": {"norad_id": 66444, "name": "STARLINK-35360", "group": "last-30-days", "lat": 2.828453685567787, "lon": -115.33120498847808, "alt_km": 414.1720806416006, "timestamp": "2025-12-09T05:43:19.508420+00:00", "meta": {"OBJECT_NAME": "STARLINK-35360", "OBJECT_ID": "2025-259Y", "EPOCH": "2025-12-08T15:03:17.437824", "MEAN_MOTION": 15.50615761, "ECCENTRICITY": 0.0002256, "INCLINATION": 43.0012, "RA_OF_ASC_NODE": 71.2839, "ARG_OF_PERICENTER": 271.2736, "MEAN_ANOMALY": 88.7866, "EPHEMERIS_TYPE": 0, "CLASSIFICATION_TYPE": "U", "NORAD_CAT_ID": 66444, "ELEMENT_SET_NO": 999, "REV_AT_EPOCH": 553, "BSTAR": 0.0019177, "MEAN_MOTION_DOT": 0.00113963, "MEAN_MOTION_DDOT": 0}, "tle": {"line1": "1 66444U 25259Y   25342.62728516  .00113963  00000+0  19177-2 0  9999", "line2": "2 66444  43.0012  71.2839 0002256 271.2736  88.7866 15.50615761  5532"}}, "geometry": {"type": "Point", "coordinates": [-115.33120498847808, 2.828453685567787]}}, {"type": "Feature", "properties": {"norad_id": 66445, "name": "STARLINK-34698", "group": "last-30-days", "lat": 5.540920773169285, "lon": -118.25554548431066, "alt_km": 413.7690700591047, "timestamp": "2025-12-09T05:43:19.508430+00:00", "meta": {"OBJECT_NAME": "STARLINK-34698", "OBJECT_ID": "2025-259Z", "EPOCH": "2025-12-08T13:31:32.441088", "MEAN_MOTION": 15.50582419, "ECCENTRICITY": 0.0002429, "INCLINATION": 43.0056, "RA_OF_ASC_NODE": 71.6672, "ARG_OF_PERICENTER": 260.1314, "MEAN_ANOMALY": 99.9272, "EPHEMERIS_TYPE": 0, "CLASSIFICATION_TYPE": "U", "NORAD_CAT_ID": 66445, "ELEMENT_SET_NO": 999, "REV_AT_EPOCH": 541, "BSTAR": 0.0015532, "MEAN_MOTION_DOT": 0.00091866, "MEAN_MOTION_DDOT": 0}, "tle": {"line1": "1 66445U 25259Z   25342.56356992  .00091866  00000+0  15532-2 0  9996", "line2": "2 66445  43.0056  71.6672 0002429 260.1314  99.9272 15.50582419  5416"}}, "geometry": {"type": "Point", "coordinates": [-118.25554548431066, 5.540920773169285]}}, {"type": "Feature", "properties": {"norad_id": 66446, "name": "STARLINK-34986", "group": "last-30-days", "lat": 4.019600755781986, "lon": -116.6127089113312, "alt_km": 413.59557481648517, "timestamp": "2025-12-09T05:43:19.508443+00:00", "meta": {"OBJECT_NAME": "STARLINK-34986", "OBJECT_ID": "2025-259AA", "EPOCH": "2025-12-08T13:31:01.098624", "MEAN_MOTION": 15.50648703, "ECCENTRICITY": 0.0001214, "INCLINATION": 42.9987, "RA_OF_ASC_NODE": 71.6636, "ARG_OF_PERICENTER": 255.1355, "MEAN_ANOMALY": 104.9371, "EPHEMERIS_TYPE": 0, "CLASSIFICATION_TYPE": "U", "NORAD_CAT_ID": 66446, "ELEMENT_SET_NO": 999, "REV_AT_EPOCH": 552, "BSTAR": 0.0017594, "MEAN_MOTION_DOT": 0.00104519, "MEAN_MOTION_DDOT": 0}, "tle": {"line1": "1 66446U 25259AA  25342.56320716  .00104519  00000+0  17594-2 0  9992", "line2": "2 66446  42.9987  71.6636 0001214 255.1355 104.9371 15.50648703  5526"}}, "geometry": {"type": "Point", "coordinates": [-116.6127089113312, 4.019600755781986]}}, {"type": "Feature", "properties": {"norad_id": 66447, "name": "STARLINK-34851", "group": "last-30-days", "lat": 1.6038061279281215, "lon": -114.01814414972117, "alt_km": 414.4405621348469, "timestamp": "2025-12-09T05:43:19.508453+00:00", "meta": {"OBJECT_NAME": "STARLINK-34851", "OBJECT_ID": "2025-259AB", "EPOCH": "2025-12-08T15:02:47.857920", "MEAN_MOTION": 15.50594628, "ECCENTRICITY": 0.0001769, "INCLINATION": 43.0013, "RA_OF_ASC_NODE": 71.2813, "ARG_OF_PERICENTER": 267.3813, "MEAN_ANOMALY": 92.6845, "EPHEMERIS_TYPE": 0, "CLASSIFICATION_TYPE": "U", "NORAD_CAT_ID": 66447, "ELEMENT_SET_NO": 999, "REV_AT_EPOCH": 542, "BSTAR": 0.0009093, "MEAN_MOTION_DOT": 0.00053397, "MEAN_MOTION_DDOT": 0}, "tle": {"line1": "1 66447U 25259AB  25342.62694280  .00053397  00000+0  90930-3 0  9993", "line2": "2 66447  43.0013  71.2813 0001769 267.3813  92.6845 15.50594628  5425"}}, "geometry": {"type": "Point", "coordinates": [-114.01814414972117, 1.6038061279281215]}}, {"type": "Feature", "properties": {"norad_id": 66448, "name": "STARLINK-35355", "group": "last-30-days", "lat": 0.19053828555702407, "lon": -112.50589849675276, "alt_km": 414.52384620479916, "timestamp": "2025-12-09T05:43:19.508464+00:00", "meta": {"OBJECT_NAME": "STARLINK-35355", "OBJECT_ID": "2025-259AC", "EPOCH": "2025-12-08T15:02:18.093984", "MEAN_MOTION": 15.50621652, "ECCENTRICITY": 0.0002283, "INCLINATION": 43.001, "RA_OF_ASC_NODE": 71.2787, "ARG_OF_PERICENTER": 277.6667, "MEAN_ANOMALY": 82.3933, "EPHEMERIS_TYPE": 0, "CLASSIFICATION_TYPE": "U", "NORAD_CAT_ID": 66448, "ELEMENT_SET_NO": 999, "REV_AT_EPOCH": 553, "BSTAR": 0.0021527, "MEAN_MOTION_DOT": 0.00128234, "MEAN_MOTION_DDOT": 0}, "tle": {"line1": "1 66448U 25259AC  25342.62659831  .00128234  00000+0  21527-2 0  9995", "line2": "2 66448  43.0010  71.2787 0002283 277.6667  82.3933 15.50621652  5530"}}, "geometry": {"type": "Point", "coordinates": [-112.50589849675276, 0.19053828555702407]}}, {"type": "Feature", "properties": {"norad_id": 66449, "name": "STARLINK-34720", "group": "last-30-days", "lat": -1.1392680554094199, "lon": -111.08398697119411, "alt_km": 414.59589879351824, "timestamp": "2025-12-09T05:43:19.508474+00:00", "meta": {"OBJECT_NAME": "STARLINK-34720", "OBJECT_ID": "2025-259AD", "EPOCH": "2025-12-08T15:01:48.649728", "MEAN_MOTION": 15.50622403, "ECCENTRICITY": 0.0001615, "INCLINATION": 43.0016, "RA_OF_ASC_NODE": 71.2754, "ARG_OF_PERICENTER": 283.7215, "MEAN_ANOMALY": 76.3465, "EPHEMERIS_TYPE": 0, "CLASSIFICATION_TYPE": "U", "NORAD_CAT_ID": 66449, "ELEMENT_SET_NO": 999, "REV_AT_EPOCH": 542, "BSTAR": 0.0025081, "MEAN_MOTION_DOT": 0.00149877, "MEAN_MOTION_DDOT": 0}, "tle": {"line1": "1 66449U 25259AD  25342.62625752  .00149877  00000+0  25081-2 0  9996", "line2": "2 66449  43.0016  71.2754 0001615 283.7215  76.3465 15.50622403  5422"}}, "geometry": {"type": "Point", "coordinates": [-111.08398697119411, -1.1392680554094199]}}]}